$$SOE
2459580.500000000, A.D. 2022-Jan-01 00:00:00.0000, -2.031631670506031E+08, 4.777124698264655E+08, 7.012247586271077E+06,
2459587.500000000, A.D. 2022-Jan-08 00:00:00.0000, -2.111932504355135E+08, 4.734140885990336E+08, 7.377679172941178E+06,
2459594.500000000, A.D. 2022-Jan-15 00:00:00.0000, -2.191498095104613E+08, 4.689507765690873E+08, 7.740541343853891E+06,
2459601.500000000, A.D. 2022-Jan-22 00:00:00.0000, -2.270297362118984E+08, 4.643233770269562E+08, 8.100695569642693E+06,
2459608.500000000, A.D. 2022-Jan-29 00:00:00.0000, -2.348299130378879E+08, 4.595327830365005E+08, 8.458002863222778E+06,
2459615.500000000, A.D. 2022-Feb-05 00:00:00.0000, -2.425472153833444E+08, 4.545799377232589E+08, 8.812323929558516E+06,
2459622.500000000, A.D. 2022-Feb-12 00:00:00.0000, -2.501785117320494E+08, 4.494658335223450E+08, 9.163519031689376E+06,
2459629.500000000, A.D. 2022-Feb-19 00:00:00.0000, -2.577206630344494E+08, 4.441915127567194E+08, 9.511447888086826E+06,
2459636.500000000, A.D. 2022-Feb-26 00:00:00.0000, -2.651705225849375E+08, 4.387580688252673E+08, 9.855969662349164E+06,
2459643.500000000, A.D. 2022-Mar-05 00:00:00.0000, -2.725249362406977E+08, 4.331666473848184E+08, 1.019694298002961E+07,
2459650.500000000, A.D. 2022-Mar-12 00:00:00.0000, -2.797807427617244E+08, 4.274184474606761E+08, 1.053422594669119E+07,
2459657.500000000, A.D. 2022-Mar-19 00:00:00.0000, -2.869347742025531E+08, 4.215147225136847E+08, 1.086767616275796E+07,
2459664.500000000, A.D. 2022-Mar-26 00:00:00.0000, -2.939838563350620E+08, 4.154567814576751E+08, 1.119715073243508E+07,
2459671.500000000, A.D. 2022-Apr-02 00:00:00.0000, -3.009248090364565E+08, 4.092459895710595E+08, 1.152250625575122E+07,
2459678.500000000, A.D. 2022-Apr-09 00:00:00.0000, -3.077544463724613E+08, 4.028837693068532E+08, 1.184359877905276E+07,
2459685.500000000, A.D. 2022-Apr-16 00:00:00.0000, -3.144695760209909E+08, 3.963716016544986E+08, 1.216028372457549E+07,
2459692.500000000, A.D. 2022-Apr-23 00:00:00.0000, -3.210669993082331E+08, 3.897110291374722E+08, 1.247241600404072E+07,
2459699.500000000, A.D. 2022-Apr-30 00:00:00.0000, -3.275435137300116E+08, 3.829036582019227E+08, 1.277985030428988E+07,
2459706.500000000, A.D. 2022-May-07 00:00:00.0000, -3.338959148967759E+08, 3.759511590216432E+08, 1.308244110283983E+07,
2459713.500000000, A.D. 2022-May-14 00:00:00.0000, -3.401209965153437E+08, 3.688552657549480E+08, 1.338004253437373E+07,
2459720.500000000, A.D. 2022-May-21 00:00:00.0000, -3.462155504426420E+08, 3.616177780115805E+08, 1.367250835655104E+07,
2459727.500000000, A.D. 2022-May-28 00:00:00.0000, -3.521763672933136E+08, 3.542405625707474E+08, 1.395969198078988E+07,
2459734.500000000, A.D. 2022-Jun-04 00:00:00.0000, -3.580002373266010E+08, 3.467255550363411E+08, 1.424144651720466E+07,
2459741.500000000, A.D. 2022-Jun-11 00:00:00.0000, -3.636839514706274E+08, 3.390747614300181E+08, 1.451762482079832E+07,
2459748.500000000, A.D. 2022-Jun-18 00:00:00.0000, -3.692243024484063E+08, 3.312902597338755E+08, 1.478807953665358E+07,
2459755.500000000, A.D. 2022-Jun-25 00:00:00.0000, -3.746180859792652E+08, 3.233742013479440E+08, 1.505266313893935E+07,
2459762.500000000, A.D. 2022-Jul-02 00:00:00.0000, -3.798621019247839E+08, 3.153288123949765E+08, 1.531122794631948E+07,
2459769.500000000, A.D. 2022-Jul-09 00:00:00.0000, -3.849531549921242E+08, 3.071563950473831E+08, 1.556362609271523E+07,
2459776.500000000, A.D. 2022-Jul-16 00:00:00.0000, -3.898880550534090E+08, 2.988593299565830E+08, 1.580970954728016E+07,
2459783.500000000, A.D. 2022-Jul-23 00:00:00.0000, -3.946636192839359E+08, 2.904400798602008E+08, 1.604933039189756E+07,
2459790.500000000, A.D. 2022-Jul-30 00:00:00.0000, -3.992766760390704E+08, 2.819011910116602E+08, 1.628234107474789E+07,
2459797.500000000, A.D. 2022-Aug-06 00:00:00.0000, -4.037240668728598E+08, 2.732452930769951E+08, 1.650859436327191E+07,
2459804.500000000, A.D. 2022-Aug-13 00:00:00.0000, -4.080026475248856E+08, 2.644751002483315E+08, 1.672794329758887E+07,
2459811.500000000, A.D. 2022-Aug-20 00:00:00.0000, -4.121092894499856E+08, 2.555934130672432E+08, 1.694024124754505E+07,
2459818.500000000, A.D. 2022-Aug-27 00:00:00.0000, -4.160408818270054E+08, 2.466031202286406E+08, 1.714534200814065E+07,
2459825.500000000, A.D. 2022-Sep-03 00:00:00.0000, -4.197943338020176E+08, 2.375072002511170E+08, 1.734309990192500E+07,
2459832.500000000, A.D. 2022-Sep-10 00:00:00.0000, -4.233665768788870E+08, 2.283087230335665E+08, 1.753336988235101E+07,
2459839.500000000, A.D. 2022-Sep-17 00:00:00.0000, -4.267545674301963E+08, 2.190108512917117E+08, 1.771600763545372E+07,
2459846.500000000, A.D. 2022-Sep-24 00:00:00.0000, -4.299552892699513E+08, 2.096168418181319E+08, 1.789086967026956E+07,
2459853.500000000, A.D. 2022-Oct-01 00:00:00.0000, -4.329657560498447E+08, 2.001300465367869E+08, 1.805781337419680E+07,
2459860.500000000, A.D. 2022-Oct-08 00:00:00.0000, -4.357830130742356E+08, 1.905539138664160E+08, 1.821669703858060E+07,
2459867.500000000, A.D. 2022-Oct-15 00:00:00.0000, -4.384041394696143E+08, 1.808919915840329E+08, 1.836738003791078E+07,
2459874.500000000, A.D. 2022-Oct-22 00:00:00.0000, -4.408262528959135E+08, 1.711479294977899E+08, 1.850972322499864E+07,
2459881.500000000, A.D. 2022-Oct-29 00:00:00.0000, -4.430465143065813E+08, 1.613254793306373E+08, 1.864358910098159E+07,
2459888.500000000, A.D. 2022-Nov-05 00:00:00.0000, -4.450621306591877E+08, 1.514284945494765E+08, 1.876884179155281E+07,
2459895.500000000, A.D. 2022-Nov-12 00:00:00.0000, -4.468703575427585E+08, 1.414609313982299E+08, 1.888534711306834E+07,
2459902.500000000, A.D. 2022-Nov-19 00:00:00.0000, -4.484685024440550E+08, 1.314268501722641E+08, 1.899297271639410E+07,
2459909.500000000, A.D. 2022-Nov-26 00:00:00.0000, -4.498539283924047E+08, 1.213304163285827E+08, 1.909158825191528E+07,
2459916.500000000, A.D. 2022-Dec-03 00:00:00.0000, -4.510240578177080E+08, 1.111759014110905E+08, 1.918106553954227E+07,
2459923.500000000, A.D. 2022-Dec-10 00:00:00.0000, -4.519763765763373E+08, 1.009676837995969E+08, 1.926127874109402E+07,
2459930.500000000, A.D. 2022-Dec-17 00:00:00.0000, -4.527084381202167E+08, 9.071024924704507E+07, 1.933210453079155E+07,
2459937.500000000, A.D. 2022-Dec-24 00:00:00.0000, -4.532178676993048E+08, 8.040819112825036E+07, 1.939342224850032E+07,
2459944.500000000, A.D. 2022-Dec-31 00:00:00.0000, -4.535023662388164E+08, 7.006621049641785E+07, 1.944511401175829E+07,
2459951.500000000, A.D. 2023-Jan-07 00:00:00.0000, -4.535597137665970E+08, 5.968911689803274E+07, 1.948706485401081E+07,
2459958.500000000, A.D. 2023-Jan-14 00:00:00.0000, -4.533877743555717E+08, 4.928183043032138E+07, 1.951916311005524E+07,
2459965.500000000, A.D. 2023-Jan-21 00:00:00.0000, -4.529845032248411E+08, 3.884938185603946E+07, 1.954130084852857E+07,
2459972.500000000, A.D. 2023-Jan-28 00:00:00.0000, -4.523479523288226E+08, 2.839691056867481E+07, 1.955337399908340E+07,
2459979.500000000, A.D. 2023-Feb-04 00:00:00.0000, -4.514762746365854E+08, 1.792966342348651E+07, 1.955528244083924E+07,
2459986.500000000, A.D. 2023-Feb-11 00:00:00.0000, -4.503677288900971E+08, 7.452994226398266E+06, 1.954693020081682E+07,
2459993.500000000, A.D. 2023-Feb-18 00:00:00.0000, -4.490206848994914E+08, -3.027636956556086E+06, 1.952822570072224E+07,
2460000.500000000, A.D. 2023-Feb-25 00:00:00.0000, -4.474336291063974E+08, -1.350666484408644E+07, 1.949908201466626E+07,
2460007.500000000, A.D. 2023-Mar-04 00:00:00.0000, -4.456051703049613E+08, -2.397842033285662E+07, 1.945941712988966E+07,
2460014.500000000, A.D. 2023-Mar-11 00:00:00.0000, -4.435340454821553E+08, -3.443713225155923E+07, 1.940915420776588E+07,
2460021.500000000, A.D. 2023-Mar-18 00:00:00.0000, -4.412191257191312E+08, -4.487692953832701E+07, 1.934822183650036E+07,
2460028.500000000, A.D. 2023-Mar-25 00:00:00.0000, -4.386594219376310E+08, -5.529184390153377E+07, 1.927655425272239E+07,
2460035.500000000, A.D. 2023-Apr-01 00:00:00.0000, -4.358540900525004E+08, -6.567581258331927E+07, 1.919409152478595E+07,
2460042.500000000, A.D. 2023-Apr-08 00:00:00.0000, -4.328024361294280E+08, -7.602268001380420E+07, 1.910077985381671E+07,
2460049.500000000, A.D. 2023-Apr-15 00:00:00.0000, -4.295039238680143E+08, -8.632619947591414E+07, 1.899657211582201E+07,
2460056.500000000, A.D. 2023-Apr-22 00:00:00.0000, -4.259581825852631E+08, -9.658003784640098E+07, 1.888142822887582E+07,
2460063.500000000, A.D. 2023-Apr-29 00:00:00.0000, -4.221650129476511E+08, -1.067777811715388E+08, 1.875531527809731E+07,
2460070.500000000, A.D. 2023-May-06 00:00:00.0000, -4.181243921916084E+08, -1.169129393063304E+08, 1.861820770476792E+07,
2460077.500000000, A.D. 2023-May-13 00:00:00.0000, -4.138364797876962E+08, -1.269789505209240E+08, 1.847008757519066E+07,
2460084.500000000, A.D. 2023-May-20 00:00:00.0000, -4.093016232932623E+08, -1.369691865741772E+08, 1.831094486657397E+07,
2460091.500000000, A.D. 2023-May-27 00:00:00.0000, -4.045203641775106E+08, -1.468769582897418E+08, 1.814077774863527E+07,
2460098.500000000, A.D. 2023-Jun-03 00:00:00.0000, -3.994934435353789E+08, -1.566955216122467E+08, 1.795959285647837E+07,
2460105.500000000, A.D. 2023-Jun-10 00:00:00.0000, -3.942218076371289E+08, -1.664180841600518E+08, 1.776740554995127E+07,
2460112.500000000, A.D. 2023-Jun-17 00:00:00.0000, -3.887066131937643E+08, -1.760378123375335E+08, 1.756424014477947E+07,
2460119.500000000, A.D. 2023-Jun-24 00:00:00.0000, -3.829492319879315E+08, -1.855478389539173E+08, 1.735013008903137E+07,
2460126.500000000, A.D. 2023-Jul-01 00:00:00.0000, -3.769512545878899E+08, -1.949412705213103E+08, 1.712511812781634E+07,
2460133.500000000, A.D. 2023-Jul-08 00:00:00.0000, -3.707144947891873E+08, -2.042111934074746E+08, 1.688925667541824E+07,
2460140.500000000, A.D. 2023-Jul-15 00:00:00.0000, -3.642409960309956E+08, -2.133506816681780E+08, 1.664260827917341E+07,
2460147.500000000, A.D. 2023-Jul-22 00:00:00.0000, -3.575330362364088E+08, -2.223528075859044E+08, 1.638524576614884E+07,
$$EOE